start=new Date('2022-06-13T00:00:00.000Z').valueOf();
sats=[{"RA_OF_ASC_NODE":"340.3175","APOAPSIS":"541.057","MEAN_MOTION":"15.08812878","TLE_LINE2":"2 51717  53.2188 340.3175 0001776  57.6971 200.2635 15.08812878  1309","FILE":"3493781","MEAN_ELEMENT_THEORY":"SGP4","PERIOD":"95.439","BSTAR":"0.00219950000000","MEAN_ANOMALY":"200.2635","CENTER_NAME":"EARTH","MEAN_MOTION_DDOT":"0.0000000000000","ELEMENT_SET_NO":"999","EPOCH":"2022-06-12T22:00:00.999936","DECAY_DATE":null,"COUNTRY_CODE":"US","GP_ID":"206016774","SITE":"AFETR","TLE_LINE1":"1 51717U 22016D   22163.91667824  .00034865  00000-0  21995-2 0  9993","LAUNCH_DATE":"2022-02-21","OBJECT_ID":"2022-016D","PERIAPSIS":"538.600","SEMIMAJOR_AXIS":"6917.963","NORAD_CAT_ID":"51717","ECCENTRICITY":"0.00017760","EPHEMERIS_TYPE":"0","MEAN_MOTION_DOT":"0.00034865","ARG_OF_PERICENTER":"57.6971","OBJECT_TYPE":"PAYLOAD","CLASSIFICATION_TYPE":"U","INCLINATION":"53.2188","REF_FRAME":"TEME","TIME_SYSTEM":"UTC","REV_AT_EPOCH":"130","OBJECT_NAME":"STARLINK-3445","RCS_SIZE":"LARGE"},{"TIME_SYSTEM":"UTC","REV_AT_EPOCH":"130","REF_FRAME":"TEME","INCLINATION":"53.2149","RCS_SIZE":"LARGE","OBJECT_NAME":"STARLINK-3546","OBJECT_TYPE":"PAYLOAD","CLASSIFICATION_TYPE":"U","ARG_OF_PERICENTER":"54.4918","MEAN_MOTION_DOT":"0.00044837","NORAD_CAT_ID":"51718","EPHEMERIS_TYPE":"0","ECCENTRICITY":"0.00018720","OBJECT_ID":"2022-016E","LAUNCH_DATE":"2022-02-21","PERIAPSIS":"538.513","TLE_LINE1":"1 51718U 22016E   22163.91667824  .00044837  00000-0  28190-2 0  9998","SEMIMAJOR_AXIS":"6917.943","COUNTRY_CODE":"US","GP_ID":"206017020","SITE":"AFETR","EPOCH":"2022-06-12T22:00:00.999936","ELEMENT_SET_NO":"999","DECAY_DATE":null,"MEAN_ELEMENT_THEORY":"SGP4","FILE":"3493781","TLE_LINE2":"2 51718  53.2149 340.3084 0001872  54.4918 283.5000 15.08819387  1301","MEAN_MOTION_DDOT":"0.0000000000000","CENTER_NAME":"EARTH","PERIOD":"95.439","BSTAR":"0.00281900000000","MEAN_ANOMALY":"283.5000","APOAPSIS":"541.103","RA_OF_ASC_NODE":"340.3084","MEAN_MOTION":"15.08819387"},{"OBJECT_NAME":"STARLINK-3540","RCS_SIZE":"LARGE","INCLINATION":"53.2198","REF_FRAME":"TEME","TIME_SYSTEM":"UTC","REV_AT_EPOCH":"130","MEAN_MOTION_DOT":"0.00007111","ARG_OF_PERICENTER":"56.6272","CLASSIFICATION_TYPE":"U","OBJECT_TYPE":"PAYLOAD","ECCENTRICITY":"0.00015950","EPHEMERIS_TYPE":"0","NORAD_CAT_ID":"51719","SEMIMAJOR_AXIS":"6917.906","TLE_LINE1":"1 51719U 22016F   22163.91667824  .00007111  00000-0  46450-3 0  9993","LAUNCH_DATE":"2022-02-21","OBJECT_ID":"2022-016F","PERIAPSIS":"538.667","SITE":"AFETR","COUNTRY_CODE":"US","GP_ID":"206015773","DECAY_DATE":null,"ELEMENT_SET_NO":"999","EPOCH":"2022-06-12T22:00:00.999936","PERIOD":"95.438","BSTAR":"0.00046450000000","MEAN_ANOMALY":"241.3426","CENTER_NAME":"EARTH","MEAN_MOTION_DDOT":"0.0000000000000","TLE_LINE2":"2 51719  53.2198 340.3148 0001595  56.6272 241.3426 15.08831681  1301","FILE":"3493781","MEAN_ELEMENT_THEORY":"SGP4","MEAN_MOTION":"15.08831681","RA_OF_ASC_NODE":"340.3148","APOAPSIS":"540.874"},{"MEAN_MOTION":"15.08828671","APOAPSIS":"541.088","RA_OF_ASC_NODE":"340.3133","MEAN_MOTION_DDOT":"0.0000000000000","CENTER_NAME":"EARTH","BSTAR":"0.00227790000000","PERIOD":"95.438","MEAN_ANOMALY":"311.6721","MEAN_ELEMENT_THEORY":"SGP4","FILE":"3493781","TLE_LINE2":"2 51720  53.2161 340.3133 0001891  46.3015 311.6721 15.08828671  1301","DECAY_DATE":null,"ELEMENT_SET_NO":"999","EPOCH":"2022-06-12T22:00:00.999936","SITE":"AFETR","COUNTRY_CODE":"US","GP_ID":"206016023","SEMIMAJOR_AXIS":"6917.915","LAUNCH_DATE":"2022-02-21","PERIAPSIS":"538.472","OBJECT_ID":"2022-016G","TLE_LINE1":"1 51720U 22016G   22163.91667824  .00036140  00000-0  22779-2 0  9996","EPHEMERIS_TYPE":"0","ECCENTRICITY":"0.00018910","NORAD_CAT_ID":"51720","OBJECT_TYPE":"PAYLOAD","CLASSIFICATION_TYPE":"U","ARG_OF_PERICENTER":"46.3015","MEAN_MOTION_DOT":"0.00036140","RCS_SIZE":"LARGE","OBJECT_NAME":"STARLINK-3526","TIME_SYSTEM":"UTC","REV_AT_EPOCH":"130","REF_FRAME":"TEME","INCLINATION":"53.2161"},{"RCS_SIZE":"LARGE","OBJECT_NAME":"STARLINK-3524","REV_AT_EPOCH":"130","TIME_SYSTEM":"UTC","REF_FRAME":"TEME","INCLINATION":"53.2192","OBJECT_TYPE":"PAYLOAD","CLASSIFICATION_TYPE":"U","ARG_OF_PERICENTER":"55.6441","MEAN_MOTION_DOT":"0.00046820","EPHEMERIS_TYPE":"0","ECCENTRICITY":"0.00017770","NORAD_CAT_ID":"51721","SEMIMAJOR_AXIS":"6917.953","LAUNCH_DATE":"2022-02-21","PERIAPSIS":"538.589","OBJECT_ID":"2022-016H","TLE_LINE1":"1 51721U 22016H   22163.91667824  .00046820  00000-0  29423-2 0  9996","SITE":"AFETR","COUNTRY_CODE":"US","GP_ID":"206017275","DECAY_DATE":null,"EPOCH":"2022-06-12T22:00:00.999936","ELEMENT_SET_NO":"999","MEAN_MOTION_DDOT":"0.0000000000000","CENTER_NAME":"EARTH","PERIOD":"95.439","MEAN_ANOMALY":"262.3123","BSTAR":"0.00294230000000","MEAN_ELEMENT_THEORY":"SGP4","FILE":"3493781","TLE_LINE2":"2 51721  53.2192 340.3103 0001777  55.6441 262.3123 15.08816163  1303","MEAN_MOTION":"15.08816163","APOAPSIS":"541.048","RA_OF_ASC_NODE":"340.3103"},{"BSTAR":"0.00314660000000","PERIOD":"95.440","MEAN_ANOMALY":"342.4545","CENTER_NAME":"EARTH","MEAN_MOTION_DDOT":"0.0000000000000","TLE_LINE2":"2 51722  53.2153 340.3084 0001683  55.5243 342.4545 15.08809143  1302","FILE":"3493781","MEAN_ELEMENT_THEORY":"SGP4","MEAN_MOTION":"15.08809143","RA_OF_ASC_NODE":"340.3084","APOAPSIS":"541.004","SITE":"AFETR","GP_ID":"206017521","COUNTRY_CODE":"US","DECAY_DATE":null,"EPOCH":"2022-06-12T22:00:00.999936","ELEMENT_SET_NO":"999","ECCENTRICITY":"0.00016830","EPHEMERIS_TYPE":"0","NORAD_CAT_ID":"51722","SEMIMAJOR_AXIS":"6917.975","TLE_LINE1":"1 51722U 22016J   22163.91667824  .00050104  00000-0  31466-2 0  9997","LAUNCH_DATE":"2022-02-21","PERIAPSIS":"538.675","OBJECT_ID":"2022-016J","OBJECT_NAME":"STARLINK-3535","RCS_SIZE":"LARGE","INCLINATION":"53.2153","REF_FRAME":"TEME","TIME_SYSTEM":"UTC","REV_AT_EPOCH":"130","MEAN_MOTION_DOT":"0.00050104","ARG_OF_PERICENTER":"55.5243","CLASSIFICATION_TYPE":"U","OBJECT_TYPE":"PAYLOAD"},{"OBJECT_NAME":"STARLINK-3531","RCS_SIZE":"LARGE","INCLINATION":"53.2193","REF_FRAME":"TEME","REV_AT_EPOCH":"130","TIME_SYSTEM":"UTC","MEAN_MOTION_DOT":"-0.00034567","ARG_OF_PERICENTER":"295.3637","OBJECT_TYPE":"PAYLOAD","CLASSIFICATION_TYPE":"U","ECCENTRICITY":"0.00093650","EPHEMERIS_TYPE":"0","NORAD_CAT_ID":"51723","SEMIMAJOR_AXIS":"6719.549","TLE_LINE1":"1 51723U 22016K   22163.91667824 -.00034567  00000-0 -21293-3 0  9993","LAUNCH_DATE":"2022-02-21","PERIAPSIS":"335.121","OBJECT_ID":"2022-016K","SITE":"AFETR","GP_ID":"206016274","COUNTRY_CODE":"US","DECAY_DATE":null,"ELEMENT_SET_NO":"999","EPOCH":"2022-06-12T22:00:00.999936","PERIOD":"91.363","MEAN_ANOMALY":"39.5724","BSTAR":"-0.00021293000000","CENTER_NAME":"EARTH","MEAN_MOTION_DDOT":"0.0000000000000","TLE_LINE2":"2 51723  53.2193 306.3736 0009365 295.3637  39.5724 15.76131866  1307","FILE":"3493781","MEAN_ELEMENT_THEORY":"SGP4","MEAN_MOTION":"15.76131866","RA_OF_ASC_NODE":"306.3736","APOAPSIS":"347.707"},{"NORAD_CAT_ID":"51724","ECCENTRICITY":"0.00014890","EPHEMERIS_TYPE":"0","TLE_LINE1":"1 51724U 22016L   22163.91667824  .00052626  00000-0  33030-2 0  9999","LAUNCH_DATE":"2022-02-21","OBJECT_ID":"2022-016L","PERIAPSIS":"538.812","SEMIMAJOR_AXIS":"6917.977","INCLINATION":"53.2154","REF_FRAME":"TEME","REV_AT_EPOCH":"130","TIME_SYSTEM":"UTC","OBJECT_NAME":"STARLINK-3529","RCS_SIZE":"LARGE","MEAN_MOTION_DOT":"0.00052626","ARG_OF_PERICENTER":"57.1051","OBJECT_TYPE":"PAYLOAD","CLASSIFICATION_TYPE":"U","TLE_LINE2":"2 51724  53.2154 340.3095 0001489  57.1051  20.8709 15.08808297  1304","FILE":"3493781","MEAN_ELEMENT_THEORY":"SGP4","PERIOD":"95.440","BSTAR":"0.00330300000000","MEAN_ANOMALY":"20.8709","CENTER_NAME":"EARTH","MEAN_MOTION_DDOT":"0.0000000000000","RA_OF_ASC_NODE":"340.3095","APOAPSIS":"540.872","MEAN_MOTION":"15.08808297","GP_ID":"206016524","COUNTRY_CODE":"US","SITE":"AFETR","ELEMENT_SET_NO":"999","EPOCH":"2022-06-12T22:00:00.999936","DECAY_DATE":null},{"TLE_LINE2":"2 51725  53.2167 340.3148 0001752  54.9881 322.9756 15.08809873  1306","FILE":"3493781","MEAN_ELEMENT_THEORY":"SGP4","PERIOD":"95.439","MEAN_ANOMALY":"322.9756","BSTAR":"0.00303800000000","CENTER_NAME":"EARTH","MEAN_MOTION_DDOT":"0.0000000000000","RA_OF_ASC_NODE":"340.3148","APOAPSIS":"541.050","MEAN_MOTION":"15.08809873","GP_ID":"206016775","COUNTRY_CODE":"US","SITE":"AFETR","EPOCH":"2022-06-12T22:00:00.999936","ELEMENT_SET_NO":"999","DECAY_DATE":null,"NORAD_CAT_ID":"51725","ECCENTRICITY":"0.00017520","EPHEMERIS_TYPE":"0","TLE_LINE1":"1 51725U 22016M   22163.91667824  .00048354  00000-0  30380-2 0  9998","LAUNCH_DATE":"2022-02-21","PERIAPSIS":"538.625","OBJECT_ID":"2022-016M","SEMIMAJOR_AXIS":"6917.972","INCLINATION":"53.2167","REF_FRAME":"TEME","TIME_SYSTEM":"UTC","REV_AT_EPOCH":"130","OBJECT_NAME":"STARLINK-3522","RCS_SIZE":"LARGE","MEAN_MOTION_DOT":"0.00048354","ARG_OF_PERICENTER":"54.9881","OBJECT_TYPE":"PAYLOAD","CLASSIFICATION_TYPE":"U"},{"FILE":"3493781","MEAN_ELEMENT_THEORY":"SGP4","TLE_LINE2":"2 51726  53.2169 330.2977 0001666  47.4083 165.5742 15.08811102  1306","CENTER_NAME":"EARTH","MEAN_MOTION_DDOT":"0.0000000000000","PERIOD":"95.439","MEAN_ANOMALY":"165.5742","BSTAR":"0.00246410000000","RA_OF_ASC_NODE":"330.2977","APOAPSIS":"540.986","MEAN_MOTION":"15.08811102","GP_ID":"206017021","COUNTRY_CODE":"US","SITE":"AFETR","EPOCH":"2022-06-12T22:00:00.999936","ELEMENT_SET_NO":"999","DECAY_DATE":null,"NORAD_CAT_ID":"51726","EPHEMERIS_TYPE":"0","ECCENTRICITY":"0.00016660","OBJECT_ID":"2022-016N","LAUNCH_DATE":"2022-02-21","PERIAPSIS":"538.681","TLE_LINE1":"1 51726U 22016N   22163.91667824  .00039115  00000-0  24641-2 0  9997","SEMIMAJOR_AXIS":"6917.969","REF_FRAME":"TEME","TIME_SYSTEM":"UTC","REV_AT_EPOCH":"130","INCLINATION":"53.2169","OBJECT_NAME":"STARLINK-3527","RCS_SIZE":"LARGE","OBJECT_TYPE":"PAYLOAD","CLASSIFICATION_TYPE":"U","MEAN_MOTION_DOT":"0.00039115","ARG_OF_PERICENTER":"47.4083"}];
